0 PSLV DEB
1 27119U 01049BP  13281.96641326  .00005050  00000-0  43100-3 0  5825
2 27119 097.6380 243.8985 0049906 124.9979 276.4757 14.97163750640576
0 PSLV DEB
1 27119U 01049BP  13283.39189384  .00005366  00000-0  45748-3 0  5836
2 27119 097.6380 245.2916 0050030 120.2263 039.5292 14.97176045640787
0 PSLV DEB
1 27119U 01049BP  13285.45798218  .00004644  00000-0  39635-3 0  5844
2 27119 097.6379 247.3111 0050288 113.4573 015.2958 14.97191875641091
0 PSLV DEB
1 27119U 01049BP  13286.84784896  .00005367  00000-0  45706-3 0  5855
2 27119 097.6381 248.6695 0050424 108.9153 306.4380 14.97202611641309
0 PSLV DEB
1 27119U 01049BP  13288.39784762  .00007704  00000-0  65317-3 0  5867
2 27119 097.6388 250.1843 0050598 103.8898 020.6968 14.97221977641539
0 PSLV DEB
1 27119U 01049BP  13289.47113377  .00007229  00000-0  61302-3 0  5878
2 27119 097.6394 251.2335 0050637 100.3552 045.6710 14.97235437641692
0 PSLV DEB
1 27119U 01049BP  13291.47091778  .00006816  00000-0  57793-3 0  5882
2 27119 097.6409 253.1881 0050651 093.9185 024.4187 14.97259617641993
0 PSLV DEB
1 27119U 01049BP  13292.47432278  .00006461  00000-0  54791-3 0  5899
2 27119 097.6415 254.1692 0050667 090.6078 032.8749 14.97272236642140
0 PSLV DEB
1 27119U 01049BP  13293.48083801  .00006896  00000-0  58431-3 0  5904
2 27119 097.6421 255.1533 0050594 087.3190 058.1095 14.97284310642296
0 PSLV DEB
1 27119U 01049BP  13294.86699039  .00007752  00000-0  65591-3 0  5911
2 27119 097.6424 256.5088 0050569 082.7968 329.6958 14.97300232642503
